[
    {
        "Altitude(m)": 717302.7468899796,
        "Argument of Periapsis(deg)": 0.004556048474650827,
        "Eccentricity": 0.0,
        "Inclination(deg)": 45.0,
        "Latitude(deg)": -43.75250996010864,
        "Longitude(deg)": 152.48761505961477,
        "Mean Anomaly(deg)": -77.20491334100763,
        "RAAN(deg)": 324.99569922341675,
        "Satellite Name": "Constellation 1 1447",
        "Satellite Number": 1447,
        "Semi-Major Axis(m)": 7083131.272910544,
        "Time(s)": 76
    },
    {
        "Altitude(m)": 717297.3153779802,
        "Argument of Periapsis(deg)": 0.004615996480896233,
        "Eccentricity": 0.0,
        "Inclination(deg)": 45.0,
        "Latitude(deg)": -43.7393831096822,
        "Longitude(deg)": 152.5651344326118,
        "Mean Anomaly(deg)": -77.14421220075779,
        "RAAN(deg)": 324.99564263425117,
        "Satellite Name": "Constellation 1 1447",
        "Satellite Number": 1447,
        "Semi-Major Axis(m)": 7083131.272910544,
        "Time(s)": 77
    },
    {
        "Altitude(m)": 717291.8596126228,
        "Argument of Periapsis(deg)": 0.004675944487141638,
        "Eccentricity": 0.0,
        "Inclination(deg)": 45.0,
        "Latitude(deg)": -43.726197972771445,
        "Longitude(deg)": 152.6426181494293,
        "Mean Anomaly(deg)": -77.08351106050785,
        "RAAN(deg)": 324.99558604508553,
        "Satellite Name": "Constellation 1 1447",
        "Satellite Number": 1447,
        "Semi-Major Axis(m)": 7083131.272910544,
        "Time(s)": 78
    },
    {
        "Altitude(m)": 717286.3796139838,
        "Argument of Periapsis(deg)": 0.004735892493387044,
        "Eccentricity": 0.0,
        "Inclination(deg)": 45.0,
        "Latitude(deg)": -43.712954601079936,
        "Longitude(deg)": 152.72006608442717,
        "Mean Anomaly(deg)": -77.02280992025791,
        "RAAN(deg)": 324.99552945592,
        "Satellite Name": "Constellation 1 1447",
        "Satellite Number": 1447,
        "Semi-Major Axis(m)": 7083131.272910544,
        "Time(s)": 79
    },
    {
        "Altitude(m)": 717280.8754022265,
        "Argument of Periapsis(deg)": 0.004795840499632449,
        "Eccentricity": 0.0,
        "Inclination(deg)": 45.0,
        "Latitude(deg)": -43.69965304648172,
        "Longitude(deg)": 152.79747811249615,
        "Mean Anomaly(deg)": -76.96210878000807,
        "RAAN(deg)": 324.9954728667544,
        "Satellite Name": "Constellation 1 1447",
        "Satellite Number": 1447,
        "Semi-Major Axis(m)": 7083131.272910544,
        "Time(s)": 80
    },
    {
        "Altitude(m)": 717275.3469975947,
        "Argument of Periapsis(deg)": 0.004855788505877855,
        "Eccentricity": 0.0,
        "Inclination(deg)": 45.0,
        "Latitude(deg)": -43.686293361020496,
        "Longitude(deg)": 152.87485410905978,
        "Mean Anomaly(deg)": -76.90140763975823,
        "RAAN(deg)": 324.99541627758884,
        "Satellite Name": "Constellation 1 1447",
        "Satellite Number": 1447,
        "Semi-Major Axis(m)": 7083131.272910544,
        "Time(s)": 81
    },
    {
        "Altitude(m)": 717269.794420437,
        "Argument of Periapsis(deg)": 0.00491573651212326,
        "Eccentricity": 0.0,
        "Inclination(deg)": 45.0,
        "Latitude(deg)": -43.67287559690829,
        "Longitude(deg)": 152.95219378197785,
        "Mean Anomaly(deg)": -76.84070649950824,
        "RAAN(deg)": 324.9953596884233,
        "Satellite Name": "Constellation 1 1447",
        "Satellite Number": 1447,
        "Semi-Major Axis(m)": 7083131.272910544,
        "Time(s)": 82
    },
    {
        "Altitude(m)": 717264.2176911739,
        "Argument of Periapsis(deg)": 0.004975684518368666,
        "Eccentricity": 0.0,
        "Inclination(deg)": 45.0,
        "Latitude(deg)": -43.659399806525975,
        "Longitude(deg)": 153.02949734393454,
        "Mean Anomaly(deg)": -76.78000535925835,
        "RAAN(deg)": 324.9953030992577,
        "Satellite Name": "Constellation 1 1447",
        "Satellite Number": 1447,
        "Semi-Major Axis(m)": 7083131.272910544,
        "Time(s)": 83
    },
    {
        "Altitude(m)": 717258.6168303301,
        "Argument of Periapsis(deg)": 0.005035632524614072,
        "Eccentricity": 0.0,
        "Inclination(deg)": 45.0,
        "Latitude(deg)": -43.64586604242051,
        "Longitude(deg)": 153.10676450385847,
        "Mean Anomaly(deg)": -76.71930421900854,
        "RAAN(deg)": 324.99524651009216,
        "Satellite Name": "Constellation 1 1447",
        "Satellite Number": 1447,
        "Semi-Major Axis(m)": 7083131.272910544,
        "Time(s)": 84
    },
    {
        "Altitude(m)": 717252.9918585026,
        "Argument of Periapsis(deg)": 0.0050955805308594785,
        "Eccentricity": 0.0,
        "Inclination(deg)": 45.0,
        "Latitude(deg)": -43.63227435730514,
        "Longitude(deg)": 153.18399513931124,
        "Mean Anomaly(deg)": -76.65860307875853,
        "RAAN(deg)": 324.9951899209266,
        "Satellite Name": "Constellation 1 1447",
        "Satellite Number": 1447,
        "Semi-Major Axis(m)": 7083131.272910544,
        "Time(s)": 85
    },
    {
        "Altitude(m)": 717247.3427963908,
        "Argument of Periapsis(deg)": 0.005155528537104883,
        "Eccentricity": 0.0,
        "Inclination(deg)": 45.0,
        "Latitude(deg)": -43.618624804058385,
        "Longitude(deg)": 153.26118912839058,
        "Mean Anomaly(deg)": -76.5979019385087,
        "RAAN(deg)": 324.995133331761,
        "Satellite Name": "Constellation 1 1447",
        "Satellite Number": 1447,
        "Semi-Major Axis(m)": 7083131.272910544,
        "Time(s)": 86
    },
    {
        "Altitude(m)": 717241.6696647737,
        "Argument of Periapsis(deg)": 0.0052154765433502885,
        "Eccentricity": 0.0,
        "Inclination(deg)": 45.0,
        "Latitude(deg)": -43.60491743572301,
        "Longitude(deg)": 153.33834634973223,
        "Mean Anomaly(deg)": -76.53720079825877,
        "RAAN(deg)": 324.9950767425955,
        "Satellite Name": "Constellation 1 1447",
        "Satellite Number": 1447,
        "Semi-Major Axis(m)": 7083131.272910544,
        "Time(s)": 87
    },
    {
        "Altitude(m)": 717235.9724845128,
        "Argument of Periapsis(deg)": 0.005275424549595694,
        "Eccentricity": 0.0,
        "Inclination(deg)": 45.0,
        "Latitude(deg)": -43.591152305505204,
        "Longitude(deg)": 153.4154666825097,
        "Mean Anomaly(deg)": -76.47649965800888,
        "RAAN(deg)": 324.99502015342983,
        "Satellite Name": "Constellation 1 1447",
        "Satellite Number": 1447,
        "Semi-Major Axis(m)": 7083131.272910544,
        "Time(s)": 88
    },
    {
        "Altitude(m)": 717230.2512765778,
        "Argument of Periapsis(deg)": 0.0053353725558411,
        "Eccentricity": 0.0,
        "Inclination(deg)": 45.0,
        "Latitude(deg)": -43.57732946677349,
        "Longitude(deg)": 153.49254983833904,
        "Mean Anomaly(deg)": -76.41579851775899,
        "RAAN(deg)": 324.9949635642643,
        "Satellite Name": "Constellation 1 1447",
        "Satellite Number": 1447,
        "Semi-Major Axis(m)": 7083131.272910544,
        "Time(s)": 89
    },
    {
        "Altitude(m)": 717224.5060620051,
        "Argument of Periapsis(deg)": 0.005395320562086505,
        "Eccentricity": 0.0,
        "Inclination(deg)": 45.0,
        "Latitude(deg)": -43.563448973058655,
        "Longitude(deg)": 153.56959603366678,
        "Mean Anomaly(deg)": -76.35509737750915,
        "RAAN(deg)": 324.99490697509873,
        "Satellite Name": "Constellation 1 1447",
        "Satellite Number": 1447,
        "Semi-Major Axis(m)": 7083131.272910544,
        "Time(s)": 90
    },
    {
        "Altitude(m)": 717218.7368619264,
        "Argument of Periapsis(deg)": 0.00545526856833191,
        "Eccentricity": 0.0,
        "Inclination(deg)": 45.0,
        "Latitude(deg)": -43.54951087805151,
        "Longitude(deg)": 153.64660498118934,
        "Mean Anomaly(deg)": -76.29439623725922,
        "RAAN(deg)": 324.99485038593315,
        "Satellite Name": "Constellation 1 1447",
        "Satellite Number": 1447,
        "Semi-Major Axis(m)": 7083131.272910544,
        "Time(s)": 91
    },
    {
        "Altitude(m)": 717212.9436975677,
        "Argument of Periapsis(deg)": 0.005515216574577317,
        "Eccentricity": 0.0,
        "Inclination(deg)": 45.0,
        "Latitude(deg)": -43.53551523560299,
        "Longitude(deg)": 153.72357656224136,
        "Mean Anomaly(deg)": -76.23369509700923,
        "RAAN(deg)": 324.9947937967676,
        "Satellite Name": "Constellation 1 1447",
        "Satellite Number": 1447,
        "Semi-Major Axis(m)": 7083131.272910544,
        "Time(s)": 92
    },
    {
        "Altitude(m)": 717207.1265902318,
        "Argument of Periapsis(deg)": 0.005575164580822722,
        "Eccentricity": 0.0,
        "Inclination(deg)": 45.0,
        "Latitude(deg)": -43.52146209972297,
        "Longitude(deg)": 153.8005106586993,
        "Mean Anomaly(deg)": -76.1729939567594,
        "RAAN(deg)": 324.99473720760204,
        "Satellite Name": "Constellation 1 1447",
        "Satellite Number": 1447,
        "Semi-Major Axis(m)": 7083131.272910544,
        "Time(s)": 93
    },
    {
        "Altitude(m)": 717201.2855613173,
        "Argument of Periapsis(deg)": 0.005635112587068129,
        "Eccentricity": 0.0,
        "Inclination(deg)": 45.0,
        "Latitude(deg)": -43.50735152457937,
        "Longitude(deg)": 153.87740715298284,
        "Mean Anomaly(deg)": -76.11229281650951,
        "RAAN(deg)": 324.99468061843646,
        "Satellite Name": "Constellation 1 1447",
        "Satellite Number": 1447,
        "Semi-Major Axis(m)": 7083131.272910544,
        "Time(s)": 94
    }
]